{
    "links": {
        "self": "http://www.neowsapp.com/rest/v1/neo/3550229?api_key=iIulBulltgU6a56xZRHN4H3l9WmuAYTsLGpBGhQ2"
    },
    "id": "3550229",
    "neo_reference_id": "3550229",
    "name": "(2010 VU)",
    "designation": "2010 VU",
    "nasa_jpl_url": "http://ssd.jpl.nasa.gov/sbdb.cgi?sstr=3550229",
    "absolute_magnitude_h": 24.9,
    "estimated_diameter": {
        "kilometers": {
            "estimated_diameter_min": 0.0278326768,
            "estimated_diameter_max": 0.0622357573
        },
        "meters": {
            "estimated_diameter_min": 27.8326768072,
            "estimated_diameter_max": 62.2357573367
        },
        "miles": {
            "estimated_diameter_min": 0.0172944182,
            "estimated_diameter_max": 0.0386714948
        },
        "feet": {
            "estimated_diameter_min": 91.3145593761,
            "estimated_diameter_max": 204.1855621004
        }
    },
    "is_potentially_hazardous_asteroid": false,
    "close_approach_data": [
        {
            "close_approach_date": "2010-10-10",
            "close_approach_date_full": "2010-Oct-10 11:17",
            "epoch_date_close_approach": 1286709420000,
            "relative_velocity": {
                "kilometers_per_second": "9.0161508107",
                "kilometers_per_hour": "32458.1429185721",
                "miles_per_hour": "20168.2277484872"
            },
            "miss_distance": {
                "astronomical": "0.0580668189",
                "lunar": "22.5879925521",
                "kilometers": "8686672.425115743",
                "miles": "5397647.9527055334"
            },
            "orbiting_body": "Earth"
        }
    ],
    "orbital_data": {
        "orbit_id": "9",
        "orbit_determination_date": "2017-04-06 08:55:59",
        "first_observation_date": "2010-11-01",
        "last_observation_date": "2010-11-14",
        "data_arc_in_days": 13,
        "observations_used": 14,
        "orbit_uncertainty": "8",
        "minimum_orbit_intersection": ".0350924",
        "jupiter_tisserand_invariant": "4.516",
        "epoch_osculation": "2455503.5",
        "eccentricity": ".3595694797988621",
        "semi_major_axis": "1.476836966689551",
        "inclination": "2.828506386381132",
        "ascending_node_longitude": "234.717102730175",
        "orbital_period": "655.5370747778651",
        "perihelion_distance": ".9458114668292594",
        "perihelion_argument": "96.28815674509879",
        "aphelion_distance": "2.007862466549842",
        "perihelion_time": "2455443.417605294735",
        "mean_anomaly": "32.99532997614943",
        "mean_motion": ".5491680239778801",
        "equinox": "J2000",
        "orbit_class": {
            "orbit_class_type": "APO",
            "orbit_class_description": "Near-Earth asteroid orbits which cross the Earth’s orbit similar to that of 1862 Apollo",
            "orbit_class_range": "a (semi-major axis) > 1.0 AU; q (perihelion) < 1.017 AU"
        }
    },
    "is_sentry_object": false
}